[{"OBJECT_NAME":"ONEWEB-0056","OBJECT_ID":"2020-008AE","EPOCH":"2026-04-18T06:37:02.271936","MEAN_MOTION":13.10374172,"ECCENTRICITY":0.000173,"INCLINATION":87.8849,"RA_OF_ASC_NODE":48.1825,"ARG_OF_PERICENTER":77.9398,"MEAN_ANOMALY":282.1923,"EPHEMERIS_TYPE":0,"CLASSIFICATION_TYPE":"U","NORAD_CAT_ID":45159,"ELEMENT_SET_NO":999,"REV_AT_EPOCH":30033,"BSTAR":0.0017468,"MEAN_MOTION_DOT":6.22e-06,"MEAN_MOTION_DDOT":0.0},{"OBJECT_NAME":"ONEWEB-0057","OBJECT_ID":"2020-008AF","EPOCH":"2026-04-18T06:47:59.756064","MEAN_MOTION":13.1037131,"ECCENTRICITY":0.0001857,"INCLINATION":87.8843,"RA_OF_ASC_NODE":48.19,"ARG_OF_PERICENTER":95.6214,"MEAN_ANOMALY":264.5125,"EPHEMERIS_TYPE":0,"CLASSIFICATION_TYPE":"U","NORAD_CAT_ID":45160,"ELEMENT_SET_NO":999,"REV_AT_EPOCH":30050,"BSTAR":0.0017723,"MEAN_MOTION_DOT":6.31e-06,"MEAN_MOTION_DDOT":0.0},{"OBJECT_NAME":"ONEWEB-0058","OBJECT_ID":"2020-008AG","EPOCH":"2026-04-18T06:28:51.838752","MEAN_MOTION":13.1037472,"ECCENTRICITY":0.0002152,"INCLINATION":87.8847,"RA_OF_ASC_NODE":48.201,"ARG_OF_PERICENTER":76.0153,"MEAN_ANOMALY":284.1214,"EPHEMERIS_TYPE":0,"CLASSIFICATION_TYPE":"U","NORAD_CAT_ID":45161,"ELEMENT_SET_NO":999,"REV_AT_EPOCH":30057,"BSTAR":0.0011752,"MEAN_MOTION_DOT":4.23e-06,"MEAN_MOTION_DDOT":0.0},{"OBJECT_NAME":"ONEWEB-0059","OBJECT_ID":"2020-008AH","EPOCH":"2026-04-18T06:23:52.737504","MEAN_MOTION":13.10375098,"ECCENTRICITY":0.0002088,"INCLINATION":87.8841,"RA_OF_ASC_NODE":48.2017,"ARG_OF_PERICENTER":82.5332,"MEAN_ANOMALY":277.6032,"EPHEMERIS_TYPE":0,"CLASSIFICATION_TYPE":"U","NORAD_CAT_ID":45162,"ELEMENT_SET_NO":999,"REV_AT_EPOCH":30047,"BSTAR":0.00080809,"MEAN_MOTION_DOT":2.95e-06,"MEAN_MOTION_DDOT":0.0},{"OBJECT_NAME":"ONEWEB-0062","OBJECT_ID":"2020-008AJ","EPOCH":"2026-04-18T05:10:58.976832","MEAN_MOTION":13.10370412,"ECCENTRICITY":0.0002231,"INCLINATION":87.8846,"RA_OF_ASC_NODE":48.1962,"ARG_OF_PERICENTER":70.4388,"MEAN_ANOMALY":289.6981,"EPHEMERIS_TYPE":0,"CLASSIFICATION_TYPE":"U","NORAD_CAT_ID":45163,"ELEMENT_SET_NO":999,"REV_AT_EPOCH":30033,"BSTAR":0.0012941,"MEAN_MOTION_DOT":4.64e-06,"MEAN_MOTION_DDOT":0.0},{"OBJECT_NAME":"ONEWEB-0065","OBJECT_ID":"2020-008AK","EPOCH":"2026-04-18T02:15:03.284064","MEAN_MOTION":13.10373036,"ECCENTRICITY":0.0001605,"INCLINATION":87.8847,"RA_OF_ASC_NODE":48.2278,"ARG_OF_PERICENTER":87.1934,"MEAN_ANOMALY":272.9377,"EPHEMERIS_TYPE":0,"CLASSIFICATION_TYPE":"U","NORAD_CAT_ID":45164,"ELEMENT_SET_NO":999,"REV_AT_EPOCH":30001,"BSTAR":-0.0018788,"MEAN_MOTION_DOT":-6.43e-06,"MEAN_MOTION_DDOT":0.0},{"OBJECT_NAME":"ONEWEB-0066","OBJECT_ID":"2020-020A","EPOCH":"2026-04-18T04:15:31.615200","MEAN_MOTION":13.11388104,"ECCENTRICITY":0.0002169,"INCLINATION":87.8931,"RA_OF_ASC_NODE":32.9988,"ARG_OF_PERICENTER":87.6524,"MEAN_ANOMALY":272.4852,"EPHEMERIS_TYPE":0,"CLASSIFICATION_TYPE":"U","NORAD_CAT_ID":45424,"ELEMENT_SET_NO":999,"REV_AT_EPOCH":29481,"BSTAR":0.015903999999999998,"MEAN_MOTION_DOT":5.651e-05,"MEAN_MOTION_DDOT":0.0},{"OBJECT_NAME":"ONEWEB-0067","OBJECT_ID":"2020-020B","EPOCH":"2026-04-18T05:10:25.264416","MEAN_MOTION":13.11422303,"ECCENTRICITY":0.0001836,"INCLINATION":87.8938,"RA_OF_ASC_NODE":32.9037,"ARG_OF_PERICENTER":86.7915,"MEAN_ANOMALY":273.3423,"EPHEMERIS_TYPE":0,"CLASSIFICATION_TYPE":"U","NORAD_CAT_ID":45425,"ELEMENT_SET_NO":999,"REV_AT_EPOCH":29487,"BSTAR":-0.00046253,"MEAN_MOTION_DOT":-1.51e-06,"MEAN_MOTION_DDOT":0.0},{"OBJECT_NAME":"ONEWEB-0080","OBJECT_ID":"2020-020C","EPOCH":"2026-04-18T01:29:41.465472","MEAN_MOTION":13.11417796,"ECCENTRICITY":0.0002067,"INCLINATION":87.8938,"RA_OF_ASC_NODE":33.0142,"ARG_OF_PERICENTER":69.8462,"MEAN_ANOMALY":290.2888,"EPHEMERIS_TYPE":0,"CLASSIFICATION_TYPE":"U","NORAD_CAT_ID":45426,"ELEMENT_SET_NO":999,"REV_AT_EPOCH":29482,"BSTAR":-0.00078055,"MEAN_MOTION_DOT":-2.64e-06,"MEAN_MOTION_DDOT":0.0},{"OBJECT_NAME":"ONEWEB-0090","OBJECT_ID":"2020-020D","EPOCH":"2026-04-18T04:01:04.218816","MEAN_MOTION":13.11416244,"ECCENTRICITY":0.0001891,"INCLINATION":87.8928,"RA_OF_ASC_NODE":32.9986,"ARG_OF_PERICENTER":77.7027,"MEAN_ANOMALY":282.4312,"EPHEMERIS_TYPE":0,"CLASSIFICATION_TYPE":"U","NORAD_CAT_ID":45427,"ELEMENT_SET_NO":999,"REV_AT_EPOCH":29480,"BSTAR":0.0014573,"MEAN_MOTION_DOT":5.29e-06,"MEAN_MOTION_DDOT":0.0},{"OBJECT_NAME":"ONEWEB-0061","OBJECT_ID":"2020-020E","EPOCH":"2026-04-18T01:07:18.803424","MEAN_MOTION":13.1141613,"ECCENTRICITY":0.0001866,"INCLINATION":87.8941,"RA_OF_ASC_NODE":33.0077,"ARG_OF_PERICENTER":77.7633,"MEAN_ANOMALY":282.3704,"EPHEMERIS_TYPE":0,"CLASSIFICATION_TYPE":"U","NORAD_CAT_ID":45428,"ELEMENT_SET_NO":999,"REV_AT_EPOCH":29474,"BSTAR":-0.0019928000000000003,"MEAN_MOTION_DOT":-6.94e-06,"MEAN_MOTION_DDOT":0.0},{"OBJECT_NAME":"ONEWEB-0081","OBJECT_ID":"2020-020F","EPOCH":"2026-04-18T04:20:23.394912","MEAN_MOTION":13.11416702,"ECCENTRICITY":0.000193,"INCLINATION":87.8917,"RA_OF_ASC_NODE":32.9952,"ARG_OF_PERICENTER":84.7533,"MEAN_ANOMALY":275.3815,"EPHEMERIS_TYPE":0,"CLASSIFICATION_TYPE":"U","NORAD_CAT_ID":45429,"ELEMENT_SET_NO":999,"REV_AT_EPOCH":29487,"BSTAR":0.00023199,"MEAN_MOTION_DOT":9.5e-07,"MEAN_MOTION_DDOT":0.0},{"OBJECT_NAME":"ONEWEB-0069","OBJECT_ID":"2020-020G","EPOCH":"2026-04-18T00:24:48.224448","MEAN_MOTION":13.1141535,"ECCENTRICITY":0.0001867,"INCLINATION":87.8923,"RA_OF_ASC_NODE":33.0228,"ARG_OF_PERICENTER":81.4852,"MEAN_ANOMALY":278.6488,"EPHEMERIS_TYPE":0,"CLASSIFICATION_TYPE":"U","NORAD_CAT_ID":45430,"ELEMENT_SET_NO":999,"REV_AT_EPOCH":29478,"BSTAR":0.0012188000000000001,"MEAN_MOTION_DOT":4.45e-06,"MEAN_MOTION_DDOT":0.0},{"OBJECT_NAME":"ONEWEB-0031","OBJECT_ID":"2020-020H","EPOCH":"2026-04-18T05:14:06.092448","MEAN_MOTION":13.11419971,"ECCENTRICITY":0.0001852,"INCLINATION":87.8914,"RA_OF_ASC_NODE":32.9983,"ARG_OF_PERICENTER":70.266,"MEAN_ANOMALY":289.8668,"EPHEMERIS_TYPE":0,"CLASSIFICATION_TYPE":"U","NORAD_CAT_ID":45431,"ELEMENT_SET_NO":999,"REV_AT_EPOCH":29479,"BSTAR":-0.00072174,"MEAN_MOTION_DOT":-2.43e-06,"MEAN_MOTION_DDOT":0.0},{"OBJECT_NAME":"ONEWEB-0027","OBJECT_ID":"2020-020J","EPOCH":"2026-04-18T03:56:46.543776","MEAN_MOTION":13.17647945,"ECCENTRICITY":0.0001701,"INCLINATION":87.9193,"RA_OF_ASC_NODE":17.7692,"ARG_OF_PERICENTER":67.8599,"MEAN_ANOMALY":292.2713,"EPHEMERIS_TYPE":0,"CLASSIFICATION_TYPE":"U","NORAD_CAT_ID":45432,"ELEMENT_SET_NO":999,"REV_AT_EPOCH":29845,"BSTAR":0.00016693,"MEAN_MOTION_DOT":7.8e-07,"MEAN_MOTION_DDOT":0.0},{"OBJECT_NAME":"ONEWEB-0064","OBJECT_ID":"2020-020K","EPOCH":"2026-04-18T05:11:39.510528","MEAN_MOTION":13.11418596,"ECCENTRICITY":0.0001807,"INCLINATION":87.8918,"RA_OF_ASC_NODE":32.9891,"ARG_OF_PERICENTER":72.4595,"MEAN_ANOMALY":287.673,"EPHEMERIS_TYPE":0,"CLASSIFICATION_TYPE":"U","NORAD_CAT_ID":45433,"ELEMENT_SET_NO":999,"REV_AT_EPOCH":29482,"BSTAR":-0.00058065,"MEAN_MOTION_DOT":-1.93e-06,"MEAN_MOTION_DDOT":0.0}]