ONEWEB-0056             
1 45159U 20008AE  26108.27572074  .00000622  00000+0  17468-2 0  9992
2 45159  87.8849  48.1825 0001730  77.9398 282.1923 13.10374172300337
ONEWEB-0057             
1 45160U 20008AF  26108.28333051  .00000631  00000+0  17723-2 0  9999
2 45160  87.8843  48.1900 0001857  95.6214 264.5125 13.10371310300509
ONEWEB-0058             
1 45161U 20008AG  26108.27004443  .00000423  00000+0  11752-2 0  9994
2 45161  87.8847  48.2010 0002152  76.0153 284.1214 13.10374720300573
ONEWEB-0059             
1 45162U 20008AH  26108.26658261  .00000295  00000+0  80809-3 0  9994
2 45162  87.8841  48.2017 0002088  82.5332 277.6032 13.10375098300477
ONEWEB-0062             
1 45163U 20008AJ  26108.21596038  .00000464  00000+0  12941-2 0  9992
2 45163  87.8846  48.1962 0002231  70.4388 289.6981 13.10370412300334
ONEWEB-0065             
1 45164U 20008AK  26108.09378801 -.00000643  00000+0 -18788-2 0  9991
2 45164  87.8847  48.2278 0001605  87.1934 272.9377 13.10373036300017
ONEWEB-0066             
1 45424U 20020A   26108.17744925  .00005651  00000+0  15904-1 0  9995
2 45424  87.8931  32.9988 0002169  87.6524 272.4852 13.11388104294810
ONEWEB-0067             
1 45425U 20020B   26108.21557019 -.00000151  00000+0 -46253-3 0  9992
2 45425  87.8938  32.9037 0001836  86.7915 273.3423 13.11422303294877
ONEWEB-0080             
1 45426U 20020C   26108.06228548 -.00000264  00000+0 -78055-3 0  9998
2 45426  87.8938  33.0142 0002067  69.8462 290.2888 13.11417796294821
ONEWEB-0090             
1 45427U 20020D   26108.16740994  .00000529  00000+0  14573-2 0  9990
2 45427  87.8928  32.9986 0001891  77.7027 282.4312 13.11416244294804
ONEWEB-0061             
1 45428U 20020E   26108.04674541 -.00000694  00000+0 -19928-2 0  9996
2 45428  87.8941  33.0077 0001866  77.7633 282.3704 13.11416130294749
ONEWEB-0081             
1 45429U 20020F   26108.18082633  .00000095  00000+0  23199-3 0  9996
2 45429  87.8917  32.9952 0001930  84.7533 275.3815 13.11416702294876
ONEWEB-0069             
1 45430U 20020G   26108.01722482  .00000445  00000+0  12188-2 0  9997
2 45430  87.8923  33.0228 0001867  81.4852 278.6488 13.11415350294780
ONEWEB-0031             
1 45431U 20020H   26108.21812607 -.00000243  00000+0 -72174-3 0  9999
2 45431  87.8914  32.9983 0001852  70.2660 289.8668 13.11419971294792
ONEWEB-0027             
1 45432U 20020J   26108.16442759  .00000078  00000+0  16693-3 0  9999
2 45432  87.9193  17.7692 0001701  67.8599 292.2713 13.17647945298453
ONEWEB-0064             
1 45433U 20020K   26108.21642952 -.00000193  00000+0 -58065-3 0  9992
2 45433  87.8918  32.9891 0001807  72.4595 287.6730 13.11418596294829
